*******************************************************************************
Ephemeris / WWW_USER Fri Mar  7 11:10:51 2025 Pasadena, USA      / Horizons    
*******************************************************************************
Target body name: (2018 VX1)                      {source: JPL#7}
Center body name: Earth (399)                     {source: DE441}
Center-site name: Mauna Kea
*******************************************************************************
Start time      : A.D. 2019-Jan-08 04:08:00.0000 UT      
Stop  time      : A.D. 2019-Jan-08 16:48:00.0000 UT      
Step-size       : 1 minutes
*******************************************************************************
Target pole/equ : undefined
Target radii    : undefined                                                    
Center geodetic : 204.5278, 19.8260847, 4.21024   {E-lon(deg),Lat(deg),Alt(km)}
Center cylindric: 204.5278, 6006.35451, 2151.0229 {E-lon(deg),Dxy(km),Dz(km)}
Center pole/equ : ITRF93                          {East-longitude positive}
Center radii    : 6378.137, 6378.137, 6356.752 km {Equator_a, b, pole_c}       
Target primary  : Sun
Vis. interferer : MOON (R_eq= 1737.400) km        {source: DE441}
Rel. light bend : Sun                             {source: DE441}
Rel. lght bnd GM: 1.3271E+11 km^3/s^2                                          
Small-body perts: Yes                             {source: SB441-N16}
Atmos refraction: NO (AIRLESS)
RA format       : HMS
Time format     : CAL 
Calendar mode   : Mixed Julian/Gregorian
RTS-only print  : NO       
EOP file        : eop.250306.p250602                                           
EOP coverage    : DATA-BASED 1962-JAN-20 TO 2025-MAR-06. PREDICTS-> 2025-JUN-01
Units conversion: 1 au= 149597870.700 km, c= 299792.458 km/s, 1 day= 86400.0 s 
Table cut-offs 1: Elevation (-90.0deg=NO ),Airmass (>38.000=NO), Daylight (YES)
Table cut-offs 2: Solar elongation (  0.0,180.0=NO ),Local Hour Angle( 0.0=NO )
Table cut-offs 3: RA/DEC angular rate (     0.0=NO )                           
*******************************************************************************
Initial IAU76/J2000 heliocentric ecliptic osculating elements (au, days, deg.):
  EPOCH=  2458429.5 ! 2018-Nov-07.00 (TDB)         Residual RMS= .34243        
   EC= .3094465550301519   QR= .9449639043218054   TP= 2458464.0659233886      
   OM= 45.67874041641947   W=  38.97310343924259   IN= 3.356915226222919       
  Equivalent ICRF heliocentric cartesian coordinates (au, au/d):
   X= 7.224620352366717E-01  Y= 6.383229877646874E-01  Z= 2.747435985069854E-01
  VX=-1.546092850205216E-02 VY= 1.016746642579675E-02 VZ= 5.632057443641291E-03
Asteroid physical parameters (km, seconds, rotational period in hours):        
   GM= n.a.                RAD= n.a.               ROTPER= n.a.                
   H= 27.5                 G= .150                 B-V= n.a.                   
                           ALBEDO= n.a.            STYP= n.a.                  
*******************************************************************************
 Date__(UT)__HR:MN     R.A._________(ICRF)_________DEC
******************************************************
$$SOE
 2019-Jan-08 10:17     13 50 20.291945 +03 49 17.10230
 2019-Jan-08 10:18     13 50 20.329558 +03 49 16.77080
 2019-Jan-08 10:19     13 50 20.367114 +03 49 16.43931
 2019-Jan-08 10:20     13 50 20.404614 +03 49 16.10784
 2019-Jan-08 10:21     13 50 20.442058 +03 49 15.77639
 2019-Jan-08 10:22     13 50 20.479445 +03 49 15.44495
 2019-Jan-08 10:23     13 50 20.516776 +03 49 15.11352
 2019-Jan-08 10:24     13 50 20.554050 +03 49 14.78211
 2019-Jan-08 10:25     13 50 20.591268 +03 49 14.45071
 2019-Jan-08 10:26     13 50 20.628429 +03 49 14.11933
 2019-Jan-08 10:27     13 50 20.665534 +03 49 13.78796
 2019-Jan-08 10:28     13 50 20.702582 +03 49 13.45661
 2019-Jan-08 10:29     13 50 20.739574 +03 49 13.12527
 2019-Jan-08 10:30     13 50 20.776508 +03 49 12.79394
 2019-Jan-08 10:31     13 50 20.813386 +03 49 12.46263
 2019-Jan-08 10:32     13 50 20.850207 +03 49 12.13132
 2019-Jan-08 10:33     13 50 20.886972 +03 49 11.80004
 2019-Jan-08 10:34     13 50 20.923679 +03 49 11.46876
 2019-Jan-08 10:35     13 50 20.960330 +03 49 11.13749
 2019-Jan-08 10:36     13 50 20.996924 +03 49 10.80624
 2019-Jan-08 10:37     13 50 21.033461 +03 49 10.47500
 2019-Jan-08 10:38     13 50 21.069941 +03 49 10.14377
 2019-Jan-08 10:39     13 50 21.106364 +03 49 09.81255
 2019-Jan-08 10:40     13 50 21.142729 +03 49 09.48134
 2019-Jan-08 10:41     13 50 21.179038 +03 49 09.15015
 2019-Jan-08 10:42     13 50 21.215290 +03 49 08.81896
 2019-Jan-08 10:43     13 50 21.251485 +03 49 08.48779
 2019-Jan-08 10:44     13 50 21.287623 +03 49 08.15662
 2019-Jan-08 10:45     13 50 21.323703 +03 49 07.82546
 2019-Jan-08 10:46  r  13 50 21.359727 +03 49 07.49432
 2019-Jan-08 10:47     13 50 21.395693 +03 49 07.16318
 2019-Jan-08 10:48     13 50 21.431602 +03 49 06.83205
 2019-Jan-08 10:49     13 50 21.467454 +03 49 06.50093
 2019-Jan-08 10:50     13 50 21.503249 +03 49 06.16982
 2019-Jan-08 10:51     13 50 21.538987 +03 49 05.83871
 2019-Jan-08 10:52     13 50 21.574667 +03 49 05.50762
 2019-Jan-08 10:53     13 50 21.610290 +03 49 05.17653
 2019-Jan-08 10:54     13 50 21.645856 +03 49 04.84545
 2019-Jan-08 10:55     13 50 21.681365 +03 49 04.51438
 2019-Jan-08 10:56     13 50 21.716816 +03 49 04.18331
 2019-Jan-08 10:57     13 50 21.752210 +03 49 03.85225
 2019-Jan-08 10:58     13 50 21.787547 +03 49 03.52120
 2019-Jan-08 10:59     13 50 21.822827 +03 49 03.19015
 2019-Jan-08 11:00     13 50 21.858049 +03 49 02.85911
 2019-Jan-08 11:01     13 50 21.893214 +03 49 02.52808
 2019-Jan-08 11:02     13 50 21.928322 +03 49 02.19705
 2019-Jan-08 11:03     13 50 21.963373 +03 49 01.86603
 2019-Jan-08 11:04     13 50 21.998366 +03 49 01.53501
 2019-Jan-08 11:05     13 50 22.033302 +03 49 01.20400
 2019-Jan-08 11:06     13 50 22.068181 +03 49 00.87299
 2019-Jan-08 11:07     13 50 22.103003 +03 49 00.54199
 2019-Jan-08 11:08     13 50 22.137767 +03 49 00.21099
 2019-Jan-08 11:09     13 50 22.172474 +03 48 59.87999
 2019-Jan-08 11:10     13 50 22.207124 +03 48 59.54900
 2019-Jan-08 11:11     13 50 22.241717 +03 48 59.21801
 2019-Jan-08 11:12     13 50 22.276252 +03 48 58.88702
 2019-Jan-08 11:13     13 50 22.310730 +03 48 58.55604
 2019-Jan-08 11:14     13 50 22.345151 +03 48 58.22506
 2019-Jan-08 11:15     13 50 22.379515 +03 48 57.89409
 2019-Jan-08 11:16     13 50 22.413822 +03 48 57.56311
 2019-Jan-08 11:17     13 50 22.448071 +03 48 57.23214
 2019-Jan-08 11:18     13 50 22.482263 +03 48 56.90117
 2019-Jan-08 11:19     13 50 22.516399 +03 48 56.57020
 2019-Jan-08 11:20     13 50 22.550477 +03 48 56.23923
 2019-Jan-08 11:21     13 50 22.584498 +03 48 55.90826
 2019-Jan-08 11:22     13 50 22.618462 +03 48 55.57729
 2019-Jan-08 11:23     13 50 22.652369 +03 48 55.24633
 2019-Jan-08 11:24     13 50 22.686219 +03 48 54.91536
 2019-Jan-08 11:25     13 50 22.720012 +03 48 54.58440
 2019-Jan-08 11:26     13 50 22.753748 +03 48 54.25343
 2019-Jan-08 11:27     13 50 22.787427 +03 48 53.92246
 2019-Jan-08 11:28     13 50 22.821049 +03 48 53.59150
 2019-Jan-08 11:29     13 50 22.854614 +03 48 53.26053
 2019-Jan-08 11:30     13 50 22.888123 +03 48 52.92956
 2019-Jan-08 11:31     13 50 22.921574 +03 48 52.59859
 2019-Jan-08 11:32     13 50 22.954969 +03 48 52.26762
 2019-Jan-08 11:33     13 50 22.988307 +03 48 51.93665
 2019-Jan-08 11:34     13 50 23.021589 +03 48 51.60567
 2019-Jan-08 11:35     13 50 23.054813 +03 48 51.27469
 2019-Jan-08 11:36     13 50 23.087982 +03 48 50.94371
 2019-Jan-08 11:37     13 50 23.121093 +03 48 50.61273
 2019-Jan-08 11:38     13 50 23.154148 +03 48 50.28174
 2019-Jan-08 11:39     13 50 23.187146 +03 48 49.95075
 2019-Jan-08 11:40     13 50 23.220088 +03 48 49.61976
 2019-Jan-08 11:41     13 50 23.252973 +03 48 49.28876
 2019-Jan-08 11:42     13 50 23.285802 +03 48 48.95776
 2019-Jan-08 11:43     13 50 23.318575 +03 48 48.62676
 2019-Jan-08 11:44     13 50 23.351291 +03 48 48.29575
 2019-Jan-08 11:45     13 50 23.383951 +03 48 47.96473
 2019-Jan-08 11:46     13 50 23.416555 +03 48 47.63372
 2019-Jan-08 11:47     13 50 23.449102 +03 48 47.30269
 2019-Jan-08 11:48     13 50 23.481594 +03 48 46.97166
 2019-Jan-08 11:49     13 50 23.514029 +03 48 46.64063
 2019-Jan-08 11:50     13 50 23.546408 +03 48 46.30959
 2019-Jan-08 11:51     13 50 23.578732 +03 48 45.97854
 2019-Jan-08 11:52     13 50 23.610999 +03 48 45.64749
 2019-Jan-08 11:53     13 50 23.643211 +03 48 45.31643
 2019-Jan-08 11:54     13 50 23.675366 +03 48 44.98536
 2019-Jan-08 11:55     13 50 23.707466 +03 48 44.65429
 2019-Jan-08 11:56     13 50 23.739511 +03 48 44.32320
 2019-Jan-08 11:57     13 50 23.771499 +03 48 43.99212
 2019-Jan-08 11:58     13 50 23.803432 +03 48 43.66102
 2019-Jan-08 11:59     13 50 23.835310 +03 48 43.32992
 2019-Jan-08 12:00     13 50 23.867132 +03 48 42.99880
 2019-Jan-08 12:01     13 50 23.898898 +03 48 42.66768
 2019-Jan-08 12:02     13 50 23.930610 +03 48 42.33655
 2019-Jan-08 12:03     13 50 23.962266 +03 48 42.00542
 2019-Jan-08 12:04     13 50 23.993866 +03 48 41.67427
 2019-Jan-08 12:05     13 50 24.025412 +03 48 41.34311
 2019-Jan-08 12:06     13 50 24.056903 +03 48 41.01194
 2019-Jan-08 12:07     13 50 24.088338 +03 48 40.68077
 2019-Jan-08 12:08     13 50 24.119719 +03 48 40.34958
 2019-Jan-08 12:09     13 50 24.151044 +03 48 40.01839
 2019-Jan-08 12:10     13 50 24.182315 +03 48 39.68718
 2019-Jan-08 12:11     13 50 24.213532 +03 48 39.35596
 2019-Jan-08 12:12     13 50 24.244693 +03 48 39.02473
 2019-Jan-08 12:13     13 50 24.275800 +03 48 38.69349
 2019-Jan-08 12:14     13 50 24.306853 +03 48 38.36224
 2019-Jan-08 12:15     13 50 24.337851 +03 48 38.03098
 2019-Jan-08 12:16     13 50 24.368795 +03 48 37.69970
 2019-Jan-08 12:17     13 50 24.399684 +03 48 37.36842
 2019-Jan-08 12:18     13 50 24.430519 +03 48 37.03712
 2019-Jan-08 12:19     13 50 24.461301 +03 48 36.70580
